{
  "type": "FeatureCollection",
  "features": [
    {
      "type": "Feature",
      "properties": {
        "norad_id": 66836,
        "name": "STARLINK-35838",
        "group": "last-30-days",
        "lat": 30.36608867721018,
        "lon": -177.35480780438806,
        "alt_km": 408.49662906934554,
        "timestamp": "2025-12-22T23:36:19.411366+00:00",
        "meta_object_name": "STARLINK-35838",
        "meta_object_id": "2025-280R",
        "meta_epoch": "2025-12-22T14:00:01.999872",
        "meta_mean_motion": 15.52490523,
        "meta_eccentricity": 0.00033185,
        "meta_inclination": 70.0002,
        "meta_ra_of_asc_node": 171.4191,
        "meta_arg_of_pericenter": 269.5362,
        "meta_mean_anomaly": 47.0082,
        "meta_ephemeris_type": 0,
        "meta_classification_type": "U",
        "meta_norad_cat_id": 66836,
        "meta_element_set_no": 999,
        "meta_rev_at_epoch": 447,
        "meta_bstar": 0.00061561913,
        "meta_mean_motion_dot": 0.00037848,
        "meta_mean_motion_ddot": 0,
        "tle_line1": "1 66836U 25280R   25356.58335648  .00037848  00000+0  61562-3 0  9991",
        "tle_line2": "2 66836  70.0002 171.4191 0003318 269.5362  47.0082 15.52490523  4474"
      },
      "geometry": {
        "type": "Point",
        "coordinates": [
          -177.35480780438806,
          30.36608867721018
        ]
      }
    },
    {
      "type": "Feature",
      "properties": {
        "norad_id": 66837,
        "name": "STARLINK-35729",
        "group": "last-30-days",
        "lat": 32.123695353814156,
        "lon": -176.45877506851514,
        "alt_km": 408.38574977859116,
        "timestamp": "2025-12-22T23:36:19.411378+00:00",
        "meta_object_name": "STARLINK-35729",
        "meta_object_id": "2025-280S",
        "meta_epoch": "2025-12-22T14:00:01.999872",
        "meta_mean_motion": 15.52497109,
        "meta_eccentricity": 0.00032658,
        "meta_inclination": 70.0004,
        "meta_ra_of_asc_node": 171.4171,
        "meta_arg_of_pericenter": 265.4039,
        "meta_mean_anomaly": 53.056,
        "meta_ephemeris_type": 0,
        "meta_classification_type": "U",
        "meta_norad_cat_id": 66837,
        "meta_element_set_no": 999,
        "meta_rev_at_epoch": 447,
        "meta_bstar": 0.00043264948,
        "meta_mean_motion_dot": 0.00026517,
        "meta_mean_motion_ddot": 0,
        "tle_line1": "1 66837U 25280S   25356.58335648  .00026517  00000+0  43265-3 0  9993",
        "tle_line2": "2 66837  70.0004 171.4171 0003265 265.4039  53.0560 15.52497109  4477"
      },
      "geometry": {
        "type": "Point",
        "coordinates": [
          -176.45877506851514,
          32.123695353814156
        ]
      }
    },
    {
      "type": "Feature",
      "properties": {
        "norad_id": 66838,
        "name": "STARLINK-35886",
        "group": "last-30-days",
        "lat": 35.622876176617176,
        "lon": -174.5555215437172,
        "alt_km": 407.78066155019405,
        "timestamp": "2025-12-22T23:36:19.411387+00:00",
        "meta_object_name": "STARLINK-35886",
        "meta_object_id": "2025-280T",
        "meta_epoch": "2025-12-22T14:00:01.999872",
        "meta_mean_motion": 15.52489881,
        "meta_eccentricity": 0.00031914,
        "meta_inclination": 70.0004,
        "meta_ra_of_asc_node": 171.412,
        "meta_arg_of_pericenter": 269.5202,
        "meta_mean_anomaly": 52.7805,
        "meta_ephemeris_type": 0,
        "meta_classification_type": "U",
        "meta_norad_cat_id": 66838,
        "meta_element_set_no": 999,
        "meta_rev_at_epoch": 447,
        "meta_bstar": 0.00060536774,
        "meta_mean_motion_dot": 0.0003721,
        "meta_mean_motion_ddot": 0,
        "tle_line1": "1 66838U 25280T   25356.58335648  .00037210  00000+0  60537-3 0  9997",
        "tle_line2": "2 66838  70.0004 171.4120 0003191 269.5202  52.7805 15.52489881  4473"
      },
      "geometry": {
        "type": "Point",
        "coordinates": [
          -174.5555215437172,
          35.622876176617176
        ]
      }
    },
    {
      "type": "Feature",
      "properties": {
        "norad_id": 66839,
        "name": "STARLINK-35717",
        "group": "last-30-days",
        "lat": 33.88157638708147,
        "lon": -175.52464876365252,
        "alt_km": 408.1056665324104,
        "timestamp": "2025-12-22T23:36:19.411398+00:00",
        "meta_object_name": "STARLINK-35717",
        "meta_object_id": "2025-280U",
        "meta_epoch": "2025-12-22T14:00:01.999872",
        "meta_mean_motion": 15.52489975,
        "meta_eccentricity": 0.00034004,
        "meta_inclination": 70.0004,
        "meta_ra_of_asc_node": 171.4141,
        "meta_arg_of_pericenter": 268.9361,
        "meta_mean_anomaly": 51.4486,
        "meta_ephemeris_type": 0,
        "meta_classification_type": "U",
        "meta_norad_cat_id": 66839,
        "meta_element_set_no": 999,
        "meta_rev_at_epoch": 447,
        "meta_bstar": 0.00062105586,
        "meta_mean_motion_dot": 0.00038185,
        "meta_mean_motion_ddot": 0,
        "tle_line1": "1 66839U 25280U   25356.58335648  .00038185  00000+0  62106-3 0  9994",
        "tle_line2": "2 66839  70.0004 171.4141 0003400 268.9361  51.4486 15.52489975  4474"
      },
      "geometry": {
        "type": "Point",
        "coordinates": [
          -175.52464876365252,
          33.88157638708147
        ]
      }
    },
    {
      "type": "Feature",
      "properties": {
        "norad_id": 66840,
        "name": "STARLINK-35837",
        "group": "last-30-days",
        "lat": 37.35348070943757,
        "lon": -173.54447264158856,
        "alt_km": 407.7631975060922,
        "timestamp": "2025-12-22T23:36:19.411408+00:00",
        "meta_object_name": "STARLINK-35837",
        "meta_object_id": "2025-280V",
        "meta_epoch": "2025-12-22T14:00:01.999872",
        "meta_mean_motion": 15.52608522,
        "meta_eccentricity": 0.00032619,
        "meta_inclination": 70.0003,
        "meta_ra_of_asc_node": 171.4102,
        "meta_arg_of_pericenter": 265.1095,
        "meta_mean_anomaly": 59.0342,
        "meta_ephemeris_type": 0,
        "meta_classification_type": "U",
        "meta_norad_cat_id": 66840,
        "meta_element_set_no": 999,
        "meta_rev_at_epoch": 447,
        "meta_bstar": -0.0022523844,
        "meta_mean_motion_dot": -0.0013682,
        "meta_mean_motion_ddot": 0,
        "tle_line1": "1 66840U 25280V   25356.58335648 -.00136820  00000+0 -22524-2 0  9992",
        "tle_line2": "2 66840  70.0003 171.4102 0003261 265.1095  59.0342 15.52608522  4476"
      },
      "geometry": {
        "type": "Point",
        "coordinates": [
          -173.54447264158856,
          37.35348070943757
        ]
      }
    },
    {
      "type": "Feature",
      "properties": {
        "norad_id": 66841,
        "name": "STARLINK-35715",
        "group": "last-30-days",
        "lat": 39.095339077574046,
        "lon": -172.47371771532727,
        "alt_km": 407.48066754250794,
        "timestamp": "2025-12-22T23:36:19.411417+00:00",
        "meta_object_name": "STARLINK-35715",
        "meta_object_id": "2025-280W",
        "meta_epoch": "2025-12-22T14:00:01.999872",
        "meta_mean_motion": 15.52485555,
        "meta_eccentricity": 0.00034615,
        "meta_inclination": 70.0003,
        "meta_ra_of_asc_node": 171.4075,
        "meta_arg_of_pericenter": 268.0182,
        "meta_mean_anomaly": 58.1205,
        "meta_ephemeris_type": 0,
        "meta_classification_type": "U",
        "meta_norad_cat_id": 66841,
        "meta_element_set_no": 999,
        "meta_rev_at_epoch": 447,
        "meta_bstar": 0.00091054879,
        "meta_mean_motion_dot": 0.00056181,
        "meta_mean_motion_ddot": 0,
        "tle_line1": "1 66841U 25280W   25356.58335648  .00056181  00000+0  91055-3 0  9998",
        "tle_line2": "2 66841  70.0003 171.4075 0003461 268.0182  58.1205 15.52485555  4474"
      },
      "geometry": {
        "type": "Point",
        "coordinates": [
          -172.47371771532727,
          39.095339077574046
        ]
      }
    },
    {
      "type": "Feature",
      "properties": {
        "norad_id": 66842,
        "name": "STARLINK-35769",
        "group": "last-30-days",
        "lat": 40.800923527348054,
        "lon": -171.3655884215403,
        "alt_km": 407.1268843647704,
        "timestamp": "2025-12-22T23:36:19.411427+00:00",
        "meta_object_name": "STARLINK-35769",
        "meta_object_id": "2025-280X",
        "meta_epoch": "2025-12-22T14:00:01.999872",
        "meta_mean_motion": 15.52493512,
        "meta_eccentricity": 0.00032612,
        "meta_inclination": 70.0003,
        "meta_ra_of_asc_node": 171.4054,
        "meta_arg_of_pericenter": 270.409,
        "meta_mean_anomaly": 57.6344,
        "meta_ephemeris_type": 0,
        "meta_classification_type": "U",
        "meta_norad_cat_id": 66842,
        "meta_element_set_no": 999,
        "meta_rev_at_epoch": 447,
        "meta_bstar": 0.00059023491,
        "meta_mean_motion_dot": 0.00036277,
        "meta_mean_motion_ddot": 0,
        "tle_line1": "1 66842U 25280X   25356.58335648  .00036277  00000+0  59023-3 0  9992",
        "tle_line2": "2 66842  70.0003 171.4054 0003261 270.4090  57.6344 15.52493512  4475"
      },
      "geometry": {
        "type": "Point",
        "coordinates": [
          -171.3655884215403,
          40.800923527348054
        ]
      }
    }
  ]
}